OBJECT_NAME,OBJECT_ID,EPOCH,MEAN_MOTION,ECCENTRICITY,INCLINATION,RA_OF_ASC_NODE,ARG_OF_PERICENTER,MEAN_ANOMALY,EPHEMERIS_TYPE,CLASSIFICATION_TYPE,NORAD_CAT_ID,ELEMENT_SET_NO,REV_AT_EPOCH,BSTAR,MEAN_MOTION_DOT,MEAN_MOTION_DDOT
OSCAR 7 (AO-7),1974-089B,2026-06-06T07:00:44.160192,12.53697887,.00124557,101.9901,170.4251,150.4267,278.6605,0,U,7530,999,35915,-.4584706E-5,-.47E-6,0
PHASE 3B (AO-10),1983-058B,2026-06-05T17:10:32.210112,2.05872928,.60147622,25.9038,221.4654,112.5116,319.5552,0,U,14129,999,29525,0,-.155E-5,0
UOSAT 2 (UO-11),1984-021B,2026-06-06T14:47:27.152736,14.90757715,.00066867,97.8051,123.3096,208.9078,151.1770,0,U,14781,999,25555,.13880916E-3,.1308E-4,0
LUSAT (LO-19),1990-005G,2026-06-06T07:09:09.999360,14.34119909,.00106028,98.8853,178.8033,235.0783,124.9405,0,U,20442,999,90083,.64874393E-4,.135E-5,0
EYESAT A (AO-27),1993-061C,2026-06-06T03:52:47.686656,14.30939453,.00093193,98.6881,224.5788,128.3120,231.8902,0,U,22825,999,70542,.65389585E-4,.127E-5,0
ITAMSAT (IO-26),1993-061D,2026-06-06T10:10:31.538496,14.31365980,.00100328,98.6828,224.7574,112.9281,247.2962,0,U,22826,999,70577,.61228032E-4,.118E-5,0
RADIO ROSTO (RS15),1994-085A,2026-06-06T11:21:32.351904,11.27583601,.01556133,64.8186,320.5439,5.8553,354.4146,0,U,23439,999,29469,.78050327E-4,-.4E-6,0
JAS-2 (FO-29),1996-046B,2026-06-06T12:23:53.350080,13.53273662,.03507126,98.5249,7.8502,124.0498,239.4465,0,U,24278,999,47172,.8601335E-5,-.24E-6,0
TECHSAT 1B (GO-32),1998-043D,2026-06-06T12:40:13.432800,14.24426343,.00004608,99.0065,150.0178,194.1951,165.9214,0,U,25397,999,44981,.50114301E-4,.69E-6,0
ISS (ZARYA),1998-067A,2026-06-06T08:29:08.600064,15.49636045,.00065437,51.6350,353.7261,141.0671,219.0790,0,U,25544,999,63684,.10710771E-2,.60395E-3,0
PCSAT (NO-44),2001-043C,2026-06-06T14:42:12.833856,14.31952422,.00061165,67.0513,271.6217,264.1922,95.8483,0,U,26931,999,28893,.90579086E-4,.16E-5,0
SAUDISAT 1C (SO-50),2002-058C,2026-06-06T07:09:59.826240,14.83023212,.00754835,64.5503,162.6740,264.4886,94.7607,0,U,27607,999,26284,.14995839E-3,.1127E-4,0
CUTE-1 (CO-55),2003-031E,2026-06-06T11:59:55.617792,14.24329258,.00088506,98.6735,166.1932,210.1158,149.9513,0,U,27844,999,19015,.15774609E-3,.321E-5,0
CUBESAT XI-IV (CO-57),2003-031J,2026-06-06T06:31:58.001376,14.23615092,.00084449,98.6767,165.6897,231.2681,128.7744,0,U,27848,999,18982,.14039676E-3,.276E-5,0
MOZHAETS 4 (RS22),2003-042A,2026-06-06T14:54:27.183744,14.73448246,.00102457,98.3469,341.6815,307.2524,128.2707,0,U,27939,999,21399,.15964978E-3,.983E-5,0
CUBESAT XI-V,2005-043F,2026-06-05T09:01:24.008448,14.72598573,.00129811,98.2974,311.7509,240.3240,119.6675,0,U,28895,999,10001,.2489675E-3,.1533E-4,0
CUTE-1.7+APD II (CO-65),2008-021C,2026-06-06T13:48:54.744768,15.09348625,.00104405,97.8270,138.7746,69.9058,290.3293,0,U,32785,999,98359,.4166733E-3,.6593E-4,0
SEEDS II (CO-66),2008-021J,2026-06-06T11:49:58.023552,15.32382342,.00026668,97.7514,154.8835,34.8036,325.3378,0,U,32791,999,98565,.76135364E-3,.23772E-3,0
YUBILEINY (RS30),2008-025A,2026-06-06T11:24:31.102272,12.43178944,.0019313,82.5045,2.1047,337.9090,22.1156,0,U,32953,999,81836,.60594658E-4,.18E-6,0
KKS-1 (KISEKI),2009-002H,2026-06-06T12:42:18.807840,14.83096820,.00072086,98.1193,79.8029,335.3773,24.7095,0,U,33499,999,93461,.19855637E-3,.1562E-4,0
SWISSCUBE,2009-051B,2026-06-05T11:15:38.778912,14.62458715,.00054307,98.4043,64.1532,246.3597,113.7034,0,U,35932,999,88744,.23506342E-3,.1141E-4,0
BEESAT-1,2009-051C,2026-06-06T11:59:04.557120,14.61703523,.00039079,98.3972,64.8591,259.6670,100.4090,0,U,35933,999,88762,.20749702E-3,.984E-5,0
ITUPSAT1,2009-051E,2026-06-04T16:47:20.224032,14.60421767,.0006134,98.4056,62.2366,280.9538,79.0971,0,U,35935,999,88691,.20796E-3,.958E-5,0
XIWANG-1 (HOPE-1),2009-072B,2026-06-06T14:29:46.034592,13.16440334,.00067823,100.4028,111.6059,258.3821,101.6530,0,U,36122,999,79161,.93302778E-3,.312E-5,0
O/OREOS (USA 219),2010-062C,2026-06-05T21:04:28.196832,14.93695134,.00123709,71.9702,105.9546,87.8701,272.3886,0,U,37224,999,11495,.28689329E-3,.2979E-4,0
JUGNU,2011-058B,2026-06-06T07:23:16.719360,14.13773989,.00185037,19.9622,14.5210,316.3264,216.4094,0,U,37839,999,75748,.96536503E-4,.452E-5,0
SRMSAT,2011-058D,2026-06-06T06:31:30.735264,14.11573396,.00119474,19.9704,125.5359,84.3565,18.6414,0,U,37841,999,75627,.65061068E-4,.385E-5,0
STRAND-1,2013-009E,2026-06-06T11:21:48.371328,14.37156962,.00073994,98.3920,337.9718,262.0579,97.9768,0,U,39090,999,69552,.11849142E-3,.31E-5,0
ZACUBE-1 (TSHEPISOSAT),2013-066B,2026-06-06T03:24:53.606304,15.01117522,.0039944,97.8103,119.4196,286.6860,72.9981,0,U,39417,999,67907,.4143E-3,.5332E-4,0
GOMX-1,2013-066Q,2026-06-06T11:52:58.991808,14.69418430,.01301165,97.6489,358.6317,111.5398,249.9736,0,U,39430,999,66834,.3182737E-3,.2095E-4,0
