OSCAR 7 (AO-7)          
1 07530U 74089B   26157.29217778 -.00000047  00000+0 -45847-5 0  9992
2 07530 101.9901 170.4251 0012455 150.4267 278.6605 12.53697887359153
PHASE 3B (AO-10)        
1 14129U 83058B   26156.71565058 -.00000155  00000+0  00000+0 0  9998
2 14129  25.9038 221.4654 6014762 112.5116 319.5552  2.05872928295259
UOSAT 2 (UO-11)         
1 14781U 84021B   26157.61628649  .00001308  00000+0  13881-3 0  9994
2 14781  97.8051 123.3096 0006686 208.9078 151.1770 14.90757715255557
LUSAT (LO-19)           
1 20442U 90005G   26157.29803240  .00000135  00000+0  64874-4 0  9996
2 20442  98.8853 178.8033 0010602 235.0783 124.9405 14.34119909900838
EYESAT A (AO-27)        
1 22825U 93061C   26157.16166304  .00000127  00000+0  65390-4 0  9992
2 22825  98.6881 224.5788 0009319 128.3120 231.8902 14.30939453705420
ITAMSAT (IO-26)         
1 22826U 93061D   26157.42397614  .00000118  00000+0  61228-4 0  9998
2 22826  98.6828 224.7574 0010032 112.9281 247.2962 14.31365980705772
RADIO ROSTO (RS15)      
1 23439U 94085A   26157.47329111 -.00000040  00000+0  78050-4 0  9994
2 23439  64.8186 320.5439 0155613   5.8553 354.4146 11.27583601294690
JAS-2 (FO-29)           
1 24278U 96046B   26157.51658970 -.00000024  00000+0  86013-5 0  9999
2 24278  98.5249   7.8502 0350712 124.0498 239.4465 13.53273662471722
TECHSAT 1B (GO-32)      
1 25397U 98043D   26157.52793325  .00000069  00000+0  50114-4 0  9996
2 25397  99.0065 150.0178 0000460 194.1951 165.9214 14.24426343449816
ISS (ZARYA)             
1 25544U 98067A   26157.35357176  .00060395  00000+0  10711-2 0  9992
2 25544  51.6350 353.7261 0006543 141.0671 219.0790 15.49636045636845
PCSAT (NO-44)           
1 26931U 01043C   26157.61264854  .00000160  00000+0  90579-4 0  9996
2 26931  67.0513 271.6217 0006116 264.1922  95.8483 14.31952422288931
SAUDISAT 1C (SO-50)     
1 27607U 02058C   26157.29860910  .00001127  00000+0  14996-3 0  9995
2 27607  64.5503 162.6740 0075483 264.4886  94.7607 14.83023212262849
CUTE-1 (CO-55)          
1 27844U 03031E   26157.49994928  .00000321  00000+0  15775-3 0  9990
2 27844  98.6735 166.1932 0008850 210.1158 149.9513 14.24329258190150
CUBESAT XI-IV (CO-57)   
1 27848U 03031J   26157.27219909  .00000276  00000+0  14040-3 0  9992
2 27848  98.6767 165.6897 0008444 231.2681 128.7744 14.23615092189823
MOZHAETS 4 (RS22)       
1 27939U 03042A   26157.62114796  .00000983  00000+0  15965-3 0  9994
2 27939  98.3469 341.6815 0010245 307.2524 128.2707 14.73448246213998
CUBESAT XI-V            
1 28895U 05043F   26156.37597232  .00001533  00000+0  24897-3 0  9996
2 28895  98.2974 311.7509 0012981 240.3240 119.6675 14.72598573100013
CUTE-1.7+APD II (CO-65) 
1 32785U 08021C   26157.57563362  .00006593  00000+0  41667-3 0  9993
2 32785  97.8270 138.7746 0010440  69.9058 290.3293 15.09348625983597
SEEDS II (CO-66)        
1 32791U 08021J   26157.49303268  .00023772  00000+0  76135-3 0  9994
2 32791  97.7514 154.8835 0002666  34.8036 325.3378 15.32382342985652
YUBILEINY (RS30)        
1 32953U 08025A   26157.47535998  .00000018  00000+0  60595-4 0  9995
2 32953  82.5045   2.1047 0019313 337.9090  22.1156 12.43178944818366
KKS-1 (KISEKI)          
1 33499U 09002H   26157.52938435  .00001562  00000+0  19856-3 0  9994
2 33499  98.1193  79.8029 0007208 335.3773  24.7095 14.83096820934615
SWISSCUBE               
1 35932U 09051B   26156.46919883  .00001141  00000+0  23506-3 0  9990
2 35932  98.4043  64.1532 0005430 246.3597 113.7034 14.62458715887444
BEESAT-1                
1 35933U 09051C   26157.49935830  .00000984  00000+0  20750-3 0  9997
2 35933  98.3972  64.8591 0003907 259.6670 100.4090 14.61703523887627
ITUPSAT1                
1 35935U 09051E   26155.69953963  .00000958  00000+0  20796-3 0  9997
2 35935  98.4056  62.2366 0006134 280.9538  79.0971 14.60421767886916
XIWANG-1 (HOPE-1)       
1 36122U 09072B   26157.60400503  .00000312  00000+0  93303-3 0  9997
2 36122 100.4028 111.6059 0006782 258.3821 101.6530 13.16440334791615
O/OREOS (USA 219)       
1 37224U 10062C   26156.87810413  .00002979  00000+0  28689-3 0  9991
2 37224  71.9702 105.9546 0012370  87.8701 272.3886 14.93695134114951
JUGNU                   
1 37839U 11058B   26157.30783240  .00000452  00000+0  96537-4 0  9997
2 37839  19.9622  14.5210 0018503 316.3264 216.4094 14.13773989757485
SRMSAT                  
1 37841U 11058D   26157.27188351  .00000385  00000+0  65061-4 0  9991
2 37841  19.9704 125.5359 0011947  84.3565  18.6414 14.11573396756279
STRAND-1                
1 39090U 13009E   26157.47347652  .00000310  00000+0  11849-3 0  9992
2 39090  98.3920 337.9718 0007399 262.0579  97.9768 14.37156962695528
ZACUBE-1 (TSHEPISOSAT)  
1 39417U 13066B   26157.14228711  .00005332  00000+0  41430-3 0  9994
2 39417  97.8103 119.4196 0039944 286.6860  72.9981 15.01117522679070
GOMX-1                  
1 39430U 13066Q   26157.49512722  .00002095  00000+0  31827-3 0  9997
2 39430  97.6489 358.6317 0130116 111.5398 249.9736 14.69418430668344
